QIANFAN-33              
1 61566U 24185Q   25343.60849664  .00000541  00000+0  38170-3 0  9995
2 61566  88.9803  79.1569 0006020 352.8013   7.3076 13.96547413 68728
QIANFAN-34              
1 61567U 24185R   25343.58675253  .00000684  00000+0  43773-3 0  9997
2 61567  88.9779  78.7276 0004832 357.3698   2.7456 14.02302459 68918
QIANFAN-35              
1 61568U 24185S   25343.61415351  .00001503  00000+0  60091-3 0  9996
2 61568  88.9805  77.2465 0004539 305.0510  55.0258 14.27960420 69737
QIANFAN-36              
1 61569U 24185T   25343.56769436  .00000314  00000+0  43422-3 0  9995
2 61569  88.9787  81.3750 0007286  63.6123 296.5778 13.55586249 67492
QIANFAN-37              
1 62238U 24232B   25343.58553273  .00000153  00000+0  21879-3 0  9997
2 62238  89.0024  41.6480 0002678 105.0701 255.0746 13.50977415 98745
QIANFAN-38              
1 62239U 24232C   25343.61020940  .00000158  00000+0  22651-3 0  9996
2 62239  89.0031  41.5610 0014340 196.5898 163.4786 13.50980515 98807
QIANFAN-39              
1 62240U 24232D   25343.61556743  .00000734  00000+0  30473-3 0  9994
2 62240  89.0020  37.6669 0018463  90.3676 269.9633 14.25387472100940
QIANFAN-40              
1 62241U 24232E   25343.64312213  .00000172  00000+0  24843-3 0  9990
2 62241  89.0058  41.1414 0013110 204.0230 156.0311 13.50980209 99179
